{
    "links": {
        "self": "http://www.neowsapp.com/rest/v1/neo/3771068?api_key=iIulBulltgU6a56xZRHN4H3l9WmuAYTsLGpBGhQ2"
    },
    "id": "3771068",
    "neo_reference_id": "3771068",
    "name": "(2017 EL4)",
    "designation": "2017 EL4",
    "nasa_jpl_url": "http://ssd.jpl.nasa.gov/sbdb.cgi?sstr=3771068",
    "absolute_magnitude_h": 25.4,
    "estimated_diameter": {
        "kilometers": {
            "estimated_diameter_min": 0.022108281,
            "estimated_diameter_max": 0.0494356193
        },
        "meters": {
            "estimated_diameter_min": 22.1082810359,
            "estimated_diameter_max": 49.435619262
        },
        "miles": {
            "estimated_diameter_min": 0.0137374447,
            "estimated_diameter_max": 0.0307178602
        },
        "feet": {
            "estimated_diameter_min": 72.5337327539,
            "estimated_diameter_max": 162.1903570994
        }
    },
    "is_potentially_hazardous_asteroid": false,
    "close_approach_data": [
        {
            "close_approach_date": "2017-01-02",
            "close_approach_date_full": "2017-Jan-02 08:20",
            "epoch_date_close_approach": 1483345200000,
            "relative_velocity": {
                "kilometers_per_second": "14.2196661957",
                "kilometers_per_hour": "51190.7983043627",
                "miles_per_hour": "31807.9713130636"
            },
            "miss_distance": {
                "astronomical": "0.0618556545",
                "lunar": "24.0618496005",
                "kilometers": "9253474.160655915",
                "miles": "5749842.219705027"
            },
            "orbiting_body": "Venus"
        },
        {
            "close_approach_date": "2017-03-04",
            "close_approach_date_full": "2017-Mar-04 21:33",
            "epoch_date_close_approach": 1488663180000,
            "relative_velocity": {
                "kilometers_per_second": "16.6067078338",
                "kilometers_per_hour": "59784.1482015882",
                "miles_per_hour": "37147.5447533702"
            },
            "miss_distance": {
                "astronomical": "0.0210746344",
                "lunar": "8.1980327816",
                "kilometers": "3152720.417268728",
                "miles": "1959009.6268073264"
            },
            "orbiting_body": "Earth"
        },
        {
            "close_approach_date": "2088-09-23",
            "close_approach_date_full": "2088-Sep-23 19:28",
            "epoch_date_close_approach": 3746806080000,
            "relative_velocity": {
                "kilometers_per_second": "23.3844400033",
                "kilometers_per_hour": "84183.9840117882",
                "miles_per_hour": "52308.6538433247"
            },
            "miss_distance": {
                "astronomical": "0.2289134591",
                "lunar": "89.0473355899",
                "kilometers": "34244965.895692117",
                "miles": "21278835.0948885346"
            },
            "orbiting_body": "Earth"
        }
    ],
    "orbital_data": {
        "orbit_id": "4",
        "orbit_determination_date": "2019-12-21 06:01:47",
        "first_observation_date": "2017-03-05",
        "last_observation_date": "2017-03-17",
        "data_arc_in_days": 12,
        "observations_used": 46,
        "orbit_uncertainty": "8",
        "minimum_orbit_intersection": ".0205926",
        "jupiter_tisserand_invariant": "3.645",
        "epoch_osculation": "2457821.5",
        "eccentricity": ".6337435033897348",
        "semi_major_axis": "1.924094430653235",
        "inclination": "1.476578373897544",
        "ascending_node_longitude": "110.9750901028014",
        "orbital_period": "974.8504593128482",
        "perihelion_distance": ".7047120853183766",
        "perihelion_argument": "338.4231280606922",
        "aphelion_distance": "3.143476775988093",
        "perihelion_time": "2457772.251306394984",
        "mean_anomaly": "18.18692244377967",
        "mean_motion": ".3692874087106206",
        "equinox": "J2000",
        "orbit_class": {
            "orbit_class_type": "APO",
            "orbit_class_description": "Near-Earth asteroid orbits which cross the Earth’s orbit similar to that of 1862 Apollo",
            "orbit_class_range": "a (semi-major axis) > 1.0 AU; q (perihelion) < 1.017 AU"
        }
    },
    "is_sentry_object": false
}